{"type": "FeatureCollection", "features": [{"type": "Feature", "properties": {"norad_id": 22675, "name": "COSMOS 2251", "group": "cosmos-2251-debris", "lat": -13.286250797830377, "lon": -62.534982642657496, "alt_km": 770.9715490569606, "timestamp": "2025-12-20T16:47:36.677107+00:00", "meta": {"OBJECT_NAME": "COSMOS 2251", "OBJECT_ID": "1993-036A", "EPOCH": "2025-12-20T06:48:22.300416", "MEAN_MOTION": 14.3320687, "ECCENTRICITY": 0.002426, "INCLINATION": 74.04, "RA_OF_ASC_NODE": 302.0998, "ARG_OF_PERICENTER": 22.2518, "MEAN_ANOMALY": 337.968, "EPHEMERIS_TYPE": 0, "CLASSIFICATION_TYPE": "U", "NORAD_CAT_ID": 22675, "ELEMENT_SET_NO": 999, "REV_AT_EPOCH": 69881, "BSTAR": 3.5764e-05, "MEAN_MOTION_DOT": 7.3e-07, "MEAN_MOTION_DDOT": 0}, "tle": {"line1": "1 22675U 93036A   25354.28359144  .00000073  00000+0  35764-4 0  9996", "line2": "2 22675  74.0400 302.0998 0024260  22.2518 337.9680 14.33206870698816"}}, "geometry": {"type": "Point", "coordinates": [-62.534982642657496, -13.286250797830377]}}, {"type": "Feature", "properties": {"norad_id": 33757, "name": "COSMOS 2251 DEB", "group": "cosmos-2251-debris", "lat": 7.126523546374143, "lon": -48.87088610198203, "alt_km": 777.0805231311697, "timestamp": "2025-12-20T16:47:36.677131+00:00", "meta": {"OBJECT_NAME": "COSMOS 2251 DEB", "OBJECT_ID": "1993-036E", "EPOCH": "2025-12-20T07:13:39.576000", "MEAN_MOTION": 14.32582797, "ECCENTRICITY": 0.0015519, "INCLINATION": 74.0373, "RA_OF_ASC_NODE": 309.8056, "ARG_OF_PERICENTER": 321.8584, "MEAN_ANOMALY": 150.7805, "EPHEMERIS_TYPE": 0, "CLASSIFICATION_TYPE": "U", "NORAD_CAT_ID": 33757, "ELEMENT_SET_NO": 999, "REV_AT_EPOCH": 88104, "BSTAR": 3.2342e-05, "MEAN_MOTION_DOT": 6.2e-07, "MEAN_MOTION_DDOT": 0}, "tle": {"line1": "1 33757U 93036E   25354.30115250  .00000062  00000+0  32342-4 0  9997", "line2": "2 33757  74.0373 309.8056 0015519 321.8584 150.7805 14.32582797881049"}}, "geometry": {"type": "Point", "coordinates": [-48.87088610198203, 7.126523546374143]}}, {"type": "Feature", "properties": {"norad_id": 33758, "name": "COSMOS 2251 DEB", "group": "cosmos-2251-debris", "lat": 40.246587187143845, "lon": 6.005632600773111, "alt_km": 724.4037064488539, "timestamp": "2025-12-20T16:47:36.677145+00:00", "meta": {"OBJECT_NAME": "COSMOS 2251 DEB", "OBJECT_ID": "1993-036F", "EPOCH": "2025-12-20T00:18:43.303680", "MEAN_MOTION": 14.51633517, "ECCENTRICITY": 0.00172415, "INCLINATION": 74.0266, "RA_OF_ASC_NODE": 201.3301, "ARG_OF_PERICENTER": 267.56, "MEAN_ANOMALY": 242.9854, "EPHEMERIS_TYPE": 0, "CLASSIFICATION_TYPE": "U", "NORAD_CAT_ID": 33758, "ELEMENT_SET_NO": 999, "REV_AT_EPOCH": 88410, "BSTAR": 0.00049758731, "MEAN_MOTION_DOT": 1.971e-05, "MEAN_MOTION_DDOT": 0}, "tle": {"line1": "1 33758U 93036F   25354.01300120  .00001971  00000+0  49759-3 0  9997", "line2": "2 33758  74.0266 201.3301 0017241 267.5600 242.9854 14.51633517884105"}}, "geometry": {"type": "Point", "coordinates": [6.005632600773111, 40.246587187143845]}}, {"type": "Feature", "properties": {"norad_id": 33760, "name": "COSMOS 2251 DEB", "group": "cosmos-2251-debris", "lat": -16.288905886576206, "lon": -97.95100854507976, "alt_km": 763.7005307466679, "timestamp": "2025-12-20T16:47:36.677157+00:00", "meta": {"OBJECT_NAME": "COSMOS 2251 DEB", "OBJECT_ID": "1993-036H", "EPOCH": "2025-12-20T05:43:01.090848", "MEAN_MOTION": 14.35677227, "ECCENTRICITY": 0.0020236, "INCLINATION": 74.0322, "RA_OF_ASC_NODE": 267.695, "ARG_OF_PERICENTER": 4.3514, "MEAN_ANOMALY": 114.485, "EPHEMERIS_TYPE": 0, "CLASSIFICATION_TYPE": "U", "NORAD_CAT_ID": 33760, "ELEMENT_SET_NO": 999, "REV_AT_EPOCH": 88232, "BSTAR": 7.8994e-05, "MEAN_MOTION_DOT": 2.02e-06, "MEAN_MOTION_DDOT": 0}, "tle": {"line1": "1 33760U 93036H   25354.23820707  .00000202  00000+0  78994-4 0  9992", "line2": "2 33760  74.0322 267.6950 0020236   4.3514 114.4850 14.35677227882324"}}, "geometry": {"type": "Point", "coordinates": [-97.95100854507976, -16.288905886576206]}}, {"type": "Feature", "properties": {"norad_id": 33761, "name": "COSMOS 2251 DEB", "group": "cosmos-2251-debris", "lat": 65.23168567556704, "lon": 19.047612039390803, "alt_km": 758.0218739526144, "timestamp": "2025-12-20T16:47:36.677169+00:00", "meta": {"OBJECT_NAME": "COSMOS 2251 DEB", "OBJECT_ID": "1993-036J", "EPOCH": "2025-12-19T11:09:18.014112", "MEAN_MOTION": 14.42563129, "ECCENTRICITY": 0.0023215, "INCLINATION": 74.0354, "RA_OF_ASC_NODE": 239.6857, "ARG_OF_PERICENTER": 319.002, "MEAN_ANOMALY": 219.2979, "EPHEMERIS_TYPE": 0, "CLASSIFICATION_TYPE": "U", "NORAD_CAT_ID": 33761, "ELEMENT_SET_NO": 999, "REV_AT_EPOCH": 88331, "BSTAR": 0.00029325, "MEAN_MOTION_DOT": 9.5e-06, "MEAN_MOTION_DDOT": 0}, "tle": {"line1": "1 33761U 93036J   25353.46479183  .00000950  00000+0  29325-3 0  9998", "line2": "2 33761  74.0354 239.6857 0023215 319.0020 219.2979 14.42563129883312"}}, "geometry": {"type": "Point", "coordinates": [19.047612039390803, 65.23168567556704]}}, {"type": "Feature", "properties": {"norad_id": 33762, "name": "COSMOS 2251 DEB", "group": "cosmos-2251-debris", "lat": -41.50160997984635, "lon": 130.13912087193196, "alt_km": 792.9741925313174, "timestamp": "2025-12-20T16:47:36.677180+00:00", "meta": {"OBJECT_NAME": "COSMOS 2251 DEB", "OBJECT_ID": "1993-036K", "EPOCH": "2025-12-20T04:19:17.253984", "MEAN_MOTION": 14.33665844, "ECCENTRICITY": 0.0015314, "INCLINATION": 74.042, "RA_OF_ASC_NODE": 296.4238, "ARG_OF_PERICENTER": 356.0389, "MEAN_ANOMALY": 66.5343, "EPHEMERIS_TYPE": 0, "CLASSIFICATION_TYPE": "U", "NORAD_CAT_ID": 33762, "ELEMENT_SET_NO": 999, "REV_AT_EPOCH": 88154, "BSTAR": 3.7013242e-05, "MEAN_MOTION_DOT": 7.7e-07, "MEAN_MOTION_DDOT": 0}, "tle": {"line1": "1 33762U 93036K   25354.18006081  .00000077  00000+0  37013-4 0  9996", "line2": "2 33762  74.0420 296.4238 0015314 356.0389  66.5343 14.33665844881549"}}, "geometry": {"type": "Point", "coordinates": [130.13912087193196, -41.50160997984635]}}, {"type": "Feature", "properties": {"norad_id": 33764, "name": "COSMOS 2251 DEB", "group": "cosmos-2251-debris", "lat": 8.727597243149564, "lon": 75.44025939055587, "alt_km": 750.9344619889898, "timestamp": "2025-12-20T16:47:36.677191+00:00", "meta": {"OBJECT_NAME": "COSMOS 2251 DEB", "OBJECT_ID": "1993-036M", "EPOCH": "2025-12-20T02:58:47.280576", "MEAN_MOTION": 14.3952464, "ECCENTRICITY": 0.00236115, "INCLINATION": 74.0335, "RA_OF_ASC_NODE": 259.0217, "ARG_OF_PERICENTER": 223.4055, "MEAN_ANOMALY": 206.0359, "EPHEMERIS_TYPE": 0, "CLASSIFICATION_TYPE": "U", "NORAD_CAT_ID": 33764, "ELEMENT_SET_NO": 999, "REV_AT_EPOCH": 88263, "BSTAR": 0.0002175465, "MEAN_MOTION_DOT": 6.54e-06, "MEAN_MOTION_DDOT": 0}, "tle": {"line1": "1 33764U 93036M   25354.12415834  .00000654  00000+0  21755-3 0  9998", "line2": "2 33764  74.0335 259.0217 0023611 223.4055 206.0359 14.39524640882637"}}, "geometry": {"type": "Point", "coordinates": [75.44025939055587, 8.727597243149564]}}, {"type": "Feature", "properties": {"norad_id": 33765, "name": "COSMOS 2251 DEB", "group": "cosmos-2251-debris", "lat": -41.67861024005765, "lon": -8.56545783628082, "alt_km": 500.0657221863903, "timestamp": "2025-12-20T16:47:36.677201+00:00", "meta": {"OBJECT_NAME": "COSMOS 2251 DEB", "OBJECT_ID": "1993-036N", "EPOCH": "2025-12-20T11:10:21.736704", "MEAN_MOTION": 15.10394899, "ECCENTRICITY": 0.0064951, "INCLINATION": 74.0082, "RA_OF_ASC_NODE": 157.1259, "ARG_OF_PERICENTER": 247.9026, "MEAN_ANOMALY": 143.1669, "EPHEMERIS_TYPE": 0, "CLASSIFICATION_TYPE": "U", "NORAD_CAT_ID": 33765, "ELEMENT_SET_NO": 999, "REV_AT_EPOCH": 89735, "BSTAR": 0.0011005, "MEAN_MOTION_DOT": 0.00019015, "MEAN_MOTION_DDOT": 0}, "tle": {"line1": "1 33765U 93036N   25354.46552936  .00019015  00000+0  11005-2 0  9998", "line2": "2 33765  74.0082 157.1259 0064951 247.9026 143.1669 15.10394899897353"}}, "geometry": {"type": "Point", "coordinates": [-8.56545783628082, -41.67861024005765]}}, {"type": "Feature", "properties": {"norad_id": 33766, "name": "COSMOS 2251 DEB", "group": "cosmos-2251-debris", "lat": 72.27206556349513, "lon": -177.02742022369083, "alt_km": 790.94818385701, "timestamp": "2025-12-20T16:47:36.677211+00:00", "meta": {"OBJECT_NAME": "COSMOS 2251 DEB", "OBJECT_ID": "1993-036P", "EPOCH": "2025-12-20T09:43:16.949856", "MEAN_MOTION": 14.34954424, "ECCENTRICITY": 0.0064562, "INCLINATION": 74.1857, "RA_OF_ASC_NODE": 121.0594, "ARG_OF_PERICENTER": 322.3116, "MEAN_ANOMALY": 37.3522, "EPHEMERIS_TYPE": 0, "CLASSIFICATION_TYPE": "U", "NORAD_CAT_ID": 33766, "ELEMENT_SET_NO": 999, "REV_AT_EPOCH": 87855, "BSTAR": 0.00036697, "MEAN_MOTION_DOT": 1.044e-05, "MEAN_MOTION_DDOT": 0}, "tle": {"line1": "1 33766U 93036P   25354.40505729  .00001044  00000+0  36697-3 0  9999", "line2": "2 33766  74.1857 121.0594 0064562 322.3116  37.3522 14.34954424878557"}}, "geometry": {"type": "Point", "coordinates": [-177.02742022369083, 72.27206556349513]}}, {"type": "Feature", "properties": {"norad_id": 33768, "name": "COSMOS 2251 DEB", "group": "cosmos-2251-debris", "lat": -21.743250893971346, "lon": -159.52012277755904, "alt_km": 798.9525184801614, "timestamp": "2025-12-20T16:47:36.677222+00:00", "meta": {"OBJECT_NAME": "COSMOS 2251 DEB", "OBJECT_ID": "1993-036R", "EPOCH": "2025-12-19T23:43:59.988000", "MEAN_MOTION": 13.58460798, "ECCENTRICITY": 0.0366672, "INCLINATION": 74.0669, "RA_OF_ASC_NODE": 208.1685, "ARG_OF_PERICENTER": 4.3314, "MEAN_ANOMALY": 99.8501, "EPHEMERIS_TYPE": 0, "CLASSIFICATION_TYPE": "U", "NORAD_CAT_ID": 33768, "ELEMENT_SET_NO": 999, "REV_AT_EPOCH": 83394, "BSTAR": 0.00025605, "MEAN_MOTION_DOT": 2.68e-06, "MEAN_MOTION_DDOT": 0}, "tle": {"line1": "1 33768U 93036R   25353.98888875  .00000268  00000+0  25605-3 0  9993", "line2": "2 33768  74.0669 208.1685 0366672   4.3314  99.8501 13.58460798833946"}}, "geometry": {"type": "Point", "coordinates": [-159.52012277755904, -21.743250893971346]}}]}